ONEWEB-0338             
1 49204U 21083U   24050.11093915  .00000102  00000+0  21972-3 0  9999
2 49204  87.9133  83.4578 0002097  81.8463 278.2908 13.20770782126030
ONEWEB-0339             
1 49205U 21083V   24049.74602730  .00000318  00000+0  83659-3 0  9997
2 49205  87.8989 129.3287 0001705 103.9932 256.1386 13.13470587119385
ONEWEB-0340             
1 49206U 21083W   24050.53141722  .00000067  00000+0  13815-3 0  9994
2 49206  87.9240 144.3509 0001790 111.2115 248.9208 13.18685760119412
ONEWEB-0341             
1 49207U 21083X   24049.78056534  .00000083  00000+0  17688-3 0  9996
2 49207  87.9237 144.5150 0001092  99.8761 260.2494 13.18687065118048
ONEWEB-0342             
1 49208U 21083Y   24050.11725122  .00000083  00000+0  17243-3 0  9999
2 49208  87.9125  83.4766 0002060  88.9913 271.1456 13.20770768126003
ONEWEB-0343             
1 49209U 21083Z   24049.77582708  .00000062  00000+0  12551-3 0  9995
2 49209  87.9231 144.5301 0001249  93.0600 267.0675 13.18686918118091
ONEWEB-0344             
1 49210U 21083AA  24049.71269015 -.00000256  00000+0 -73687-3 0  9998
2 49210  87.8992 129.3490 0001826 112.7990 247.3332 13.13471260119389
ONEWEB-0345             
1 49211U 21083AB  24050.18720579 -.00000240  00000+0 -69112-3 0  9990
2 49211  87.8988 129.2336 0001384 118.5975 241.5294 13.13470025120753
